OBJECT_NAME,OBJECT_ID,EPOCH,MEAN_MOTION,ECCENTRICITY,INCLINATION,RA_OF_ASC_NODE,ARG_OF_PERICENTER,MEAN_ANOMALY,EPHEMERIS_TYPE,CLASSIFICATION_TYPE,NORAD_CAT_ID,ELEMENT_SET_NO,REV_AT_EPOCH,BSTAR,MEAN_MOTION_DOT,MEAN_MOTION_DDOT
INTELSAT 23 (IS-23),2012-057A,2026-07-11T16:43:33.893184,1.00275025,.00002687,0.0159,27.7172,159.4665,300.2928,0,U,38867,999,5020,0,-.28E-5,0
FM-6,2013-058A,2026-07-11T13:00:21.267648,1.00269912,.00013654,0.0153,50.7519,129.7450,187.6804,0,U,39360,999,4631,0,-.1E-6,0
INTELSAT 30 (IS-30),2014-062A,2026-07-11T13:06:20.694240,1.00268802,.00014858,0.0173,47.6311,329.8917,13.4681,0,U,40271,999,703,0,-.145E-5,0
DIRECTV 14,2014-078B,2026-07-11T14:47:52.289088,1.00269975,.00002694,0.0110,38.2928,271.2955,102.6579,0,U,40333,999,4228,0,-.12E-5,0
DIRECTV 15,2015-026A,2026-07-11T09:21:26.362944,1.00271076,.00001908,0.0189,71.7940,175.2336,79.7574,0,U,40663,999,4070,0,-.96E-6,0
SKY MEXICO-1,2015-026B,2026-07-11T13:10:57.751392,1.00271019,.00023007,0.0154,5.2777,129.0340,274.0865,0,U,40664,999,4069,0,-.229E-5,0
INTELSAT 34 (IS-34),2015-039A,2026-07-11T18:25:41.621376,1.00271854,.00003892,0.0109,3.0497,343.5193,164.0347,0,U,40874,999,3988,0,-.281E-5,0
INTELSAT 31 (IS-31),2016-035A,2026-07-11T14:48:44.705376,1.00274043,.00010101,0.0182,282.6786,352.4391,141.5442,0,U,41581,999,3692,0,-.146E-5,0
INTELSAT 36 (IS-36),2016-053A,2026-07-11T12:14:38.597280,1.00269566,.00025136,0.0105,355.6291,345.6309,200.3095,0,U,41747,999,3620,0,-.18E-6,0
INTELSAT 32E (IS-32E),2017-007B,2026-07-11T20:11:46.984128,1.00268953,.0000363,0.0253,37.1915,263.7971,248.5266,0,U,41945,999,3447,0,0,0
INTELSAT 35E (IS-35E),2017-041A,2026-07-11T16:48:55.878336,1.00270123,.00015927,0.0183,37.4055,72.0948,37.8427,0,U,42818,999,3306,0,-.233E-5,0
INTELSAT 37E (IS-37E),2017-059A,2026-07-11T15:10:50.087424,1.00270583,.00024902,0.0150,57.8876,60.0770,21.2805,0,U,42950,999,3231,0,-.136E-5,0
AZERSPACE 2 (IS-38),2018-074A,2026-07-11T05:13:02.871840,1.00270656,.0001235,0.0273,38.7820,92.2329,281.4917,0,U,43632,999,2868,0,0,0
HORIZONS-3E,2018-074B,2026-07-11T17:47:00.329856,1.00271927,.00008565,0.0414,220.4493,61.4867,83.4617,0,U,43633,999,2858,0,-.26E-6,0
AT&T T-16,2019-034A,2026-07-11T16:30:05.184864,1.00268836,.00009423,0.0139,58.1943,271.2667,106.7945,0,U,44333,999,2587,0,-.11E-5,0
INTELSAT 39 (IS-39),2019-049B,2026-07-11T10:25:53.855904,1.00270150,.00008894,0.0278,39.2819,281.8876,186.5962,0,U,44476,999,2537,0,0,0
GALAXY 30 (G-30),2020-056C,2026-07-11T18:05:51.023328,1.00270605,.00019319,0.0298,46.6859,69.9246,319.5079,0,U,46114,999,2153,0,0,0
GALAXY 33 (G-33),2022-128A,2026-07-11T16:20:51.069696,1.00270934,.00017635,0.0122,32.2314,86.9299,282.6342,0,U,54026,999,1398,0,.84E-6,0
GALAXY 34 (G-34),2022-128B,2026-07-11T00:58:08.413824,1.00269972,.00013492,0.0112,37.5715,92.1383,44.7761,0,U,54027,999,1415,0,.67E-6,0
GALAXY 31 (G-31),2022-153A,2026-07-11T16:24:20.734848,1.00270051,.00009183,0.0240,56.8389,61.9689,295.8604,0,U,54243,999,737,0,0,0
GALAXY 32 (G-32),2022-153B,2026-07-11T06:16:55.034976,1.00271069,.00014569,0.0115,41.9388,4.2849,246.1793,0,U,54244,999,1338,0,-.167E-5,0
GALAXY 35 (G-35),2022-170A,2026-07-11T13:06:58.133952,1.00269358,.00018617,0.0202,46.8061,69.5705,276.7162,0,U,54741,999,1313,0,0,0
GALAXY 36 (G-36),2022-170B,2026-07-11T14:50:44.513664,1.00271183,.00023649,0.0280,112.7081,347.0033,323.5001,0,U,54742,999,1301,0,-.18E-5,0
GALAXY 37 (G-37),2023-112A,2026-07-11T16:22:35.902272,1.00270663,.00017457,0.0152,66.1275,49.8835,292.2202,0,U,57493,999,1078,0,.53E-6,0
