INTELSAT 23 (IS-23)     
1 38867U 12057A   26192.69692006 -.00000280  00000+0  00000+0 0  9994
2 38867   0.0159  27.7172 0000268 159.4665 300.2928  1.00275025 50200
FM-6                    
1 39360U 13058A   26192.54191282 -.00000010  00000+0  00000+0 0  9990
2 39360   0.0153  50.7519 0001365 129.7450 187.6804  1.00269912 46310
INTELSAT 30 (IS-30)     
1 40271U 14062A   26192.54607285 -.00000145  00000+0  00000+0 0  9993
2 40271   0.0173  47.6311 0001485 329.8917  13.4681  1.00268802  7036
DIRECTV 14              
1 40333U 14078B   26192.61657742 -.00000120  00000+0  00000+0 0  9993
2 40333   0.0110  38.2928 0000269 271.2955 102.6579  1.00269975 42282
DIRECTV 15              
1 40663U 15026A   26192.38988846 -.00000096  00000+0  00000+0 0  9991
2 40663   0.0189  71.7940 0000190 175.2336  79.7574  1.00271076 40708
SKY MEXICO-1            
1 40664U 15026B   26192.54927953 -.00000229  00000+0  00000+0 0  9990
2 40664   0.0154   5.2777 0002300 129.0340 274.0865  1.00271019 40696
INTELSAT 34 (IS-34)     
1 40874U 15039A   26192.76784284 -.00000281  00000+0  00000+0 0  9997
2 40874   0.0109   3.0497 0000389 343.5193 164.0347  1.00271854 39887
INTELSAT 31 (IS-31)     
1 41581U 16035A   26192.61718409 -.00000146  00000+0  00000+0 0  9990
2 41581   0.0182 282.6786 0001010 352.4391 141.5442  1.00274043 36922
INTELSAT 36 (IS-36)     
1 41747U 16053A   26192.51016895 -.00000018  00000+0  00000+0 0  9991
2 41747   0.0105 355.6291 0002513 345.6309 200.3095  1.00269566 36208
INTELSAT 32E (IS-32E)   
1 41945U 17007B   26192.84151602  .00000000  00000+0  00000+0 0  9993
2 41945   0.0253  37.1915 0000363 263.7971 248.5266  1.00268953 34473
INTELSAT 35E (IS-35E)   
1 42818U 17041A   26192.70064674 -.00000233  00000+0  00000+0 0  9997
2 42818   0.0183  37.4055 0001592  72.0948  37.8427  1.00270123 33067
INTELSAT 37E (IS-37E)   
1 42950U 17059A   26192.63252416 -.00000136  00000+0  00000+0 0  9990
2 42950   0.0150  57.8876 0002490  60.0770  21.2805  1.00270583 32317
AZERSPACE 2 (IS-38)     
1 43632U 18074A   26192.21739435  .00000000  00000+0  00000+0 0  9990
2 43632   0.0273  38.7820 0001235  92.2329 281.4917  1.00270656 28681
HORIZONS-3E             
1 43633U 18074B   26192.74097604 -.00000026  00000+0  00000+0 0  9993
2 43633   0.0414 220.4493 0000856  61.4867  83.4617  1.00271927 28586
AT&T T-16               
1 44333U 19034A   26192.68756001 -.00000110  00000+0  00000+0 0  9998
2 44333   0.0139  58.1943 0000942 271.2667 106.7945  1.00268836 25876
INTELSAT 39 (IS-39)     
1 44476U 19049B   26192.43465111  .00000000  00000+0  00000+0 0  9991
2 44476   0.0278  39.2819 0000889 281.8876 186.5962  1.00270150 25371
GALAXY 30 (G-30)        
1 46114U 20056C   26192.75406277  .00000000  00000+0  00000+0 0  9995
2 46114   0.0298  46.6859 0001931  69.9246 319.5079  1.00270605 21531
GALAXY 33 (G-33)        
1 54026U 22128A   26192.68114664  .00000084  00000+0  00000+0 0  9998
2 54026   0.0122  32.2314 0001763  86.9299 282.6342  1.00270934 13983
GALAXY 34 (G-34)        
1 54027U 22128B   26192.04037516  .00000067  00000+0  00000+0 0  9990
2 54027   0.0112  37.5715 0001349  92.1383  44.7761  1.00269972 14151
GALAXY 31 (G-31)        
1 54243U 22153A   26192.68357332  .00000000  00000+0  00000+0 0  9996
2 54243   0.0240  56.8389 0000918  61.9689 295.8604  1.00270051  7379
GALAXY 32 (G-32)        
1 54244U 22153B   26192.26174809 -.00000167  00000+0  00000+0 0  9992
2 54244   0.0115  41.9388 0001456   4.2849 246.1793  1.00271069 13387
GALAXY 35 (G-35)        
1 54741U 22170A   26192.54650618  .00000000  00000+0  00000+0 0  9996
2 54741   0.0202  46.8061 0001861  69.5705 276.7162  1.00269358 13133
GALAXY 36 (G-36)        
1 54742U 22170B   26192.61857076 -.00000180  00000+0  00000+0 0  9992
2 54742   0.0280 112.7081 0002364 347.0033 323.5001  1.00271183 13011
GALAXY 37 (G-37)        
1 57493U 23112A   26192.68235998  .00000053  00000+0  00000+0 0  9993
2 57493   0.0152  66.1275 0001745  49.8835 292.2202  1.00270663 10789
